start=new Date('2022-03-01T00:00:00.000Z').valueOf();
sats=[{"RCS_SIZE":"LARGE","OBJECT_ID":"2020-025AR","COUNTRY_CODE":"US","NORAD_CAT_ID":"45570","APOAPSIS":"548.336","FILE":"3334872","TLE_LINE2":"2 45570  53.0536 205.0307 0001595  81.5724 278.5446 15.06394262103827","OBJECT_TYPE":"PAYLOAD","REV_AT_EPOCH":"10382","GP_ID":"197409342","MEAN_MOTION":"15.06394262","PERIAPSIS":"546.127","CENTER_NAME":"EARTH","REF_FRAME":"TEME","ARG_OF_PERICENTER":"81.5724","TIME_SYSTEM":"UTC","MEAN_MOTION_DOT":"0.00001017","OBJECT_NAME":"STARLINK-1376","MEAN_MOTION_DDOT":"0.0000000000000","SEMIMAJOR_AXIS":"6925.366","PERIOD":"95.593","MEAN_ELEMENT_THEORY":"SGP4","EPHEMERIS_TYPE":"0","BSTAR":"0.00008716700000","TLE_LINE1":"1 45570U 20025AR  22059.83897682  .00001017  00000-0  87167-4 0  9991","EPOCH":"2022-02-28T20:08:07.597248","INCLINATION":"53.0536","RA_OF_ASC_NODE":"205.0307","LAUNCH_DATE":"2020-04-22","DECAY_DATE":null,"ELEMENT_SET_NO":"999","CLASSIFICATION_TYPE":"U","MEAN_ANOMALY":"278.5446","ECCENTRICITY":"0.00015950","SITE":"AFETR"},{"EPOCH":"2022-02-28T18:55:07.442976","INCLINATION":"53.0549","LAUNCH_DATE":"2020-04-22","RA_OF_ASC_NODE":"195.2748","ELEMENT_SET_NO":"999","CLASSIFICATION_TYPE":"U","DECAY_DATE":null,"ECCENTRICITY":"0.00013990","MEAN_ANOMALY":"284.8134","SITE":"AFETR","OBJECT_ID":"2020-025AS","RCS_SIZE":"LARGE","FILE":"3334872","TLE_LINE2":"2 45571  53.0549 195.2748 0001399  75.3010 284.8134 15.06405477103973","NORAD_CAT_ID":"45571","APOAPSIS":"548.166","COUNTRY_CODE":"US","REV_AT_EPOCH":"10397","OBJECT_TYPE":"PAYLOAD","ARG_OF_PERICENTER":"75.3010","TIME_SYSTEM":"UTC","REF_FRAME":"TEME","GP_ID":"197408090","CENTER_NAME":"EARTH","PERIAPSIS":"546.228","MEAN_MOTION":"15.06405477","PERIOD":"95.592","SEMIMAJOR_AXIS":"6925.332","MEAN_MOTION_DDOT":"0.0000000000000","OBJECT_NAME":"STARLINK-1261","MEAN_MOTION_DOT":"0.00000539","MEAN_ELEMENT_THEORY":"SGP4","EPHEMERIS_TYPE":"0","TLE_LINE1":"1 45571U 20025AS  22059.78828059  .00000539  00000-0  55044-4 0  9995","BSTAR":"0.00005504400000"},{"CLASSIFICATION_TYPE":"U","ELEMENT_SET_NO":"999","DECAY_DATE":null,"ECCENTRICITY":"0.00011630","MEAN_ANOMALY":"268.7008","SITE":"AFETR","EPOCH":"2022-02-28T15:33:25.641216","INCLINATION":"53.0548","LAUNCH_DATE":"2020-04-22","RA_OF_ASC_NODE":"195.9044","REF_FRAME":"TEME","ARG_OF_PERICENTER":"91.4114","TIME_SYSTEM":"UTC","GP_ID":"197408340","CENTER_NAME":"EARTH","PERIAPSIS":"546.370","MEAN_MOTION":"15.06412586","SEMIMAJOR_AXIS":"6925.310","PERIOD":"95.591","MEAN_MOTION_DOT":"0.00001809","OBJECT_NAME":"STARLINK-1320","MEAN_MOTION_DDOT":"0.0000000000000","MEAN_ELEMENT_THEORY":"SGP4","EPHEMERIS_TYPE":"0","BSTAR":"0.00014023000000","TLE_LINE1":"1 45572U 20025AT  22059.64821344  .00001809  00000-0  14023-3 0  9993","OBJECT_ID":"2020-025AT","RCS_SIZE":"LARGE","TLE_LINE2":"2 45572  53.0548 195.9044 0001163  91.4114 268.7008 15.06412586103949","FILE":"3334872","COUNTRY_CODE":"US","NORAD_CAT_ID":"45572","APOAPSIS":"547.980","REV_AT_EPOCH":"10394","OBJECT_TYPE":"PAYLOAD"},{"EPOCH":"2022-02-28T21:23:45.066912","INCLINATION":"53.0538","LAUNCH_DATE":"2020-04-22","RA_OF_ASC_NODE":"194.8017","ELEMENT_SET_NO":"999","CLASSIFICATION_TYPE":"U","DECAY_DATE":null,"ECCENTRICITY":"0.00015840","MEAN_ANOMALY":"290.1742","SITE":"AFETR","OBJECT_ID":"2020-025AU","RCS_SIZE":"LARGE","FILE":"3334872","TLE_LINE2":"2 45573  53.0538 194.8017 0001584  69.9417 290.1742 15.06400823103675","COUNTRY_CODE":"US","NORAD_CAT_ID":"45573","APOAPSIS":"548.308","REV_AT_EPOCH":"10367","OBJECT_TYPE":"PAYLOAD","REF_FRAME":"TEME","TIME_SYSTEM":"UTC","ARG_OF_PERICENTER":"69.9417","PERIAPSIS":"546.114","GP_ID":"197409092","CENTER_NAME":"EARTH","MEAN_MOTION":"15.06400823","SEMIMAJOR_AXIS":"6925.346","PERIOD":"95.592","MEAN_MOTION_DOT":"0.00000347","MEAN_MOTION_DDOT":"0.0000000000000","OBJECT_NAME":"STARLINK-1321","MEAN_ELEMENT_THEORY":"SGP4","EPHEMERIS_TYPE":"0","BSTAR":"0.00004218200000","TLE_LINE1":"1 45573U 20025AU  22059.89149383  .00000347  00000-0  42182-4 0  9991"},{"ECCENTRICITY":"0.00016510","MEAN_ANOMALY":"285.0175","SITE":"AFETR","ELEMENT_SET_NO":"999","CLASSIFICATION_TYPE":"U","DECAY_DATE":null,"INCLINATION":"53.0550","LAUNCH_DATE":"2020-04-22","RA_OF_ASC_NODE":"195.2879","EPOCH":"2022-02-28T18:49:49.215360","EPHEMERIS_TYPE":"0","MEAN_ELEMENT_THEORY":"SGP4","TLE_LINE1":"1 45574U 20025AV  22059.78459740  .00000521  00000-0  53836-4 0  9993","BSTAR":"0.00005383600000","TIME_SYSTEM":"UTC","ARG_OF_PERICENTER":"75.0997","REF_FRAME":"TEME","GP_ID":"197409842","PERIAPSIS":"546.048","CENTER_NAME":"EARTH","MEAN_MOTION":"15.06407206","PERIOD":"95.592","SEMIMAJOR_AXIS":"6925.326","MEAN_MOTION_DDOT":"0.0000000000000","OBJECT_NAME":"STARLINK-1324","MEAN_MOTION_DOT":"0.00000521","FILE":"3334872","TLE_LINE2":"2 45574  53.0550 195.2879 0001651  75.0997 285.0175 15.06407206103975","NORAD_CAT_ID":"45574","APOAPSIS":"548.335","COUNTRY_CODE":"US","REV_AT_EPOCH":"10397","OBJECT_TYPE":"PAYLOAD","OBJECT_ID":"2020-025AV","RCS_SIZE":"LARGE"},{"SITE":"AFETR","ECCENTRICITY":"0.00007710","MEAN_ANOMALY":"253.4708","ELEMENT_SET_NO":"999","CLASSIFICATION_TYPE":"U","DECAY_DATE":null,"LAUNCH_DATE":"2020-04-22","RA_OF_ASC_NODE":"188.4771","INCLINATION":"52.9997","EPOCH":"2022-02-28T20:18:15.695136","BSTAR":"0.00072162000000","TLE_LINE1":"1 45575U 20025AW  22059.84601499  .00011708  00000-0  72162-3 0  9992","MEAN_ELEMENT_THEORY":"SGP4","EPHEMERIS_TYPE":"0","SEMIMAJOR_AXIS":"6913.201","PERIOD":"95.341","MEAN_MOTION_DOT":"0.00011708","MEAN_MOTION_DDOT":"0.0000000000000","OBJECT_NAME":"STARLINK-1326","REF_FRAME":"TEME","TIME_SYSTEM":"UTC","ARG_OF_PERICENTER":"106.6366","GP_ID":"197408590","CENTER_NAME":"EARTH","PERIAPSIS":"534.533","MEAN_MOTION":"15.10372295","REV_AT_EPOCH":"10404","OBJECT_TYPE":"PAYLOAD","TLE_LINE2":"2 45575  52.9997 188.4771 0000771 106.6366 253.4708 15.10372295104041","FILE":"3334872","COUNTRY_CODE":"US","APOAPSIS":"535.599","NORAD_CAT_ID":"45575","OBJECT_ID":"2020-025AW","RCS_SIZE":"LARGE"},{"COUNTRY_CODE":"US","APOAPSIS":"548.212","NORAD_CAT_ID":"45576","FILE":"3334872","TLE_LINE2":"2 45576  53.0539 195.4531 0001431  62.6085 297.5049 15.06397644103968","OBJECT_TYPE":"PAYLOAD","REV_AT_EPOCH":"10396","RCS_SIZE":"LARGE","OBJECT_ID":"2020-025AX","EPHEMERIS_TYPE":"0","MEAN_ELEMENT_THEORY":"SGP4","BSTAR":"-0.00002384100000","TLE_LINE1":"1 45576U 20025AX  22059.74405985 -.00000637  00000-0 -23841-4 0  9996","CENTER_NAME":"EARTH","GP_ID":"197408840","PERIAPSIS":"546.230","MEAN_MOTION":"15.06397644","REF_FRAME":"TEME","TIME_SYSTEM":"UTC","ARG_OF_PERICENTER":"62.6085","MEAN_MOTION_DOT":"-0.00000637","OBJECT_NAME":"STARLINK-1328","MEAN_MOTION_DDOT":"0.0000000000000","SEMIMAJOR_AXIS":"6925.356","PERIOD":"95.592","INCLINATION":"53.0539","RA_OF_ASC_NODE":"195.4531","LAUNCH_DATE":"2020-04-22","EPOCH":"2022-02-28T17:51:26.771040","MEAN_ANOMALY":"297.5049","ECCENTRICITY":"0.00014310","SITE":"AFETR","DECAY_DATE":null,"ELEMENT_SET_NO":"999","CLASSIFICATION_TYPE":"U"},{"ARG_OF_PERICENTER":"139.9970","TIME_SYSTEM":"UTC","REF_FRAME":"TEME","GP_ID":"197366746","PERIAPSIS":"542.697","CENTER_NAME":"EARTH","MEAN_MOTION":"15.04985511","PERIOD":"95.682","SEMIMAJOR_AXIS":"6929.687","OBJECT_NAME":"STARLINK-1330","MEAN_MOTION_DDOT":"0.0000000000000","MEAN_MOTION_DOT":"-0.00187738","EPHEMERIS_TYPE":"0","MEAN_ELEMENT_THEORY":"SGP4","TLE_LINE1":"1 45577U 20025AY  22059.56827063 -.00187738  00000-0 -13393-1 0  9998","BSTAR":"-0.01339300000000","OBJECT_ID":"2020-025AY","RCS_SIZE":"LARGE","TLE_LINE2":"2 45577  53.0529 196.2532 0012779 139.9970 220.1962 15.04985511103326","FILE":"3333762","NORAD_CAT_ID":"45577","APOAPSIS":"560.408","COUNTRY_CODE":"US","REV_AT_EPOCH":"10332","OBJECT_TYPE":"PAYLOAD","ELEMENT_SET_NO":"999","CLASSIFICATION_TYPE":"U","DECAY_DATE":null,"ECCENTRICITY":"0.00127790","MEAN_ANOMALY":"220.1962","SITE":"AFETR","EPOCH":"2022-02-28T13:38:18.582432","INCLINATION":"53.0529","LAUNCH_DATE":"2020-04-22","RA_OF_ASC_NODE":"196.2532"},{"TLE_LINE1":"1 45578U 20025AZ  22059.73668224  .00000392  00000-0  45221-4 0  9996","BSTAR":"0.00004522100000","EPHEMERIS_TYPE":"0","MEAN_ELEMENT_THEORY":"SGP4","PERIOD":"95.592","SEMIMAJOR_AXIS":"6925.357","MEAN_MOTION_DDOT":"0.0000000000000","OBJECT_NAME":"STARLINK-1331","MEAN_MOTION_DOT":"0.00000392","ARG_OF_PERICENTER":"75.6444","TIME_SYSTEM":"UTC","REF_FRAME":"TEME","CENTER_NAME":"EARTH","GP_ID":"197409343","PERIAPSIS":"546.169","MEAN_MOTION":"15.06397347","REV_AT_EPOCH":"10396","OBJECT_TYPE":"PAYLOAD","FILE":"3334872","TLE_LINE2":"2 45578  53.0533 195.5011 0001520  75.6444 284.4713 15.06397347103963","NORAD_CAT_ID":"45578","APOAPSIS":"548.274","COUNTRY_CODE":"US","OBJECT_ID":"2020-025AZ","RCS_SIZE":"LARGE","SITE":"AFETR","ECCENTRICITY":"0.00015200","MEAN_ANOMALY":"284.4713","ELEMENT_SET_NO":"999","CLASSIFICATION_TYPE":"U","DECAY_DATE":null,"LAUNCH_DATE":"2020-04-22","RA_OF_ASC_NODE":"195.5011","INCLINATION":"53.0533","EPOCH":"2022-02-28T17:40:49.345536"},{"LAUNCH_DATE":"2020-04-22","RA_OF_ASC_NODE":"155.8209","INCLINATION":"53.0538","EPOCH":"2022-02-28T15:53:18.019104","SITE":"AFETR","ECCENTRICITY":"0.00011280","MEAN_ANOMALY":"251.4885","CLASSIFICATION_TYPE":"U","ELEMENT_SET_NO":"999","DECAY_DATE":null,"REV_AT_EPOCH":"10450","OBJECT_TYPE":"PAYLOAD","TLE_LINE2":"2 45579  53.0538 155.8209 0001128 108.6227 251.4885 15.06408419104505","FILE":"3334872","COUNTRY_CODE":"US","APOAPSIS":"547.969","NORAD_CAT_ID":"45579","OBJECT_ID":"2020-025BA","RCS_SIZE":"LARGE","BSTAR":"-0.00005447900000","TLE_LINE1":"1 45579U 20025BA  22059.66201411 -.00001093  00000-0 -54479-4 0  9996","EPHEMERIS_TYPE":"0","MEAN_ELEMENT_THEORY":"SGP4","SEMIMAJOR_AXIS":"6925.323","PERIOD":"95.592","MEAN_MOTION_DOT":"-0.00001093","MEAN_MOTION_DDOT":"0.0000000000000","OBJECT_NAME":"STARLINK-1332","REF_FRAME":"TEME","TIME_SYSTEM":"UTC","ARG_OF_PERICENTER":"108.6227","GP_ID":"197408091","PERIAPSIS":"546.407","MEAN_MOTION":"15.06408419","CENTER_NAME":"EARTH"}];
